{
  "type": "FeatureCollection",
  "features": [
    {
      "type": "Feature",
      "properties": {
        "norad_id": 34971,
        "name": "COSMOS 2251 DEB",
        "group": "cosmos-2251-debris",
        "lat": 16.288882535176615,
        "lon": -73.47995276494606,
        "alt_km": 739.0885785620067,
        "timestamp": "2025-12-14T11:29:50.455966+00:00",
        "meta_object_name": "COSMOS 2251 DEB",
        "meta_object_id": "1993-036AFA",
        "meta_epoch": "2025-12-11T13:03:07.178112",
        "meta_mean_motion": 14.55631176,
        "meta_eccentricity": 0.00696698,
        "meta_inclination": 73.9786,
        "meta_ra_of_asc_node": 287.2832,
        "meta_arg_of_pericenter": 153.3092,
        "meta_mean_anomaly": 329.2446,
        "meta_ephemeris_type": 0,
        "meta_classification_type": "U",
        "meta_norad_cat_id": 34971,
        "meta_element_set_no": 999,
        "meta_rev_at_epoch": 66155,
        "meta_bstar": 0.00028423964,
        "meta_mean_motion_dot": 1.251e-05,
        "meta_mean_motion_ddot": 0,
        "tle_line1": "1 34971U 93036AFA 25345.54383308  .00001251  00000+0  28424-3 0  9999",
        "tle_line2": "2 34971  73.9786 287.2832 0069669 153.3092 329.2446 14.55631176661559"
      },
      "geometry": {
        "type": "Point",
        "coordinates": [
          -73.47995276494606,
          16.288882535176615
        ]
      }
    },
    {
      "type": "Feature",
      "properties": {
        "norad_id": 34972,
        "name": "COSMOS 2251 DEB",
        "group": "cosmos-2251-debris",
        "lat": 14.842325819759914,
        "lon": 50.82477336056256,
        "alt_km": 675.5592972088707,
        "timestamp": "2025-12-14T11:29:50.455990+00:00",
        "meta_object_name": "COSMOS 2251 DEB",
        "meta_object_id": "1993-036AFB",
        "meta_epoch": "2025-12-13T14:55:13.195200",
        "meta_mean_motion": 14.72905355,
        "meta_eccentricity": 0.00335804,
        "meta_inclination": 73.9887,
        "meta_ra_of_asc_node": 48.1347,
        "meta_arg_of_pericenter": 207.0311,
        "meta_mean_anomaly": 304.1293,
        "meta_ephemeris_type": 0,
        "meta_classification_type": "U",
        "meta_norad_cat_id": 34972,
        "meta_element_set_no": 999,
        "meta_rev_at_epoch": 87663,
        "meta_bstar": 0.00156938,
        "meta_mean_motion_dot": 0.00010131,
        "meta_mean_motion_ddot": 0,
        "tle_line1": "1 34972U 93036AFB 25347.62168050  .00010131  00000+0  15694-2 0  9997",
        "tle_line2": "2 34972  73.9887  48.1347 0033580 207.0311 304.1293 14.72905355876632"
      },
      "geometry": {
        "type": "Point",
        "coordinates": [
          50.82477336056256,
          14.842325819759914
        ]
      }
    },
    {
      "type": "Feature",
      "properties": {
        "norad_id": 34976,
        "name": "COSMOS 2251 DEB",
        "group": "cosmos-2251-debris",
        "lat": 45.036557106591964,
        "lon": 106.21358529715583,
        "alt_km": 662.6636252960707,
        "timestamp": "2025-12-14T11:29:50.456002+00:00",
        "meta_object_name": "COSMOS 2251 DEB",
        "meta_object_id": "1993-036AFF",
        "meta_epoch": "2025-12-13T14:17:16.255392",
        "meta_mean_motion": 14.76594044,
        "meta_eccentricity": 0.00478037,
        "meta_inclination": 74.0574,
        "meta_ra_of_asc_node": 304.5737,
        "meta_arg_of_pericenter": 351.1956,
        "meta_mean_anomaly": 125.2716,
        "meta_ephemeris_type": 0,
        "meta_classification_type": "U",
        "meta_norad_cat_id": 34976,
        "meta_element_set_no": 999,
        "meta_rev_at_epoch": 88286,
        "meta_bstar": 0.0019348412,
        "meta_mean_motion_dot": 0.0001376,
        "meta_mean_motion_ddot": 0,
        "tle_line1": "1 34976U 93036AFF 25347.59532703  .00013760  00000+0  19348-2 0  9998",
        "tle_line2": "2 34976  74.0574 304.5737 0047803 351.1956 125.2716 14.76594044882869"
      },
      "geometry": {
        "type": "Point",
        "coordinates": [
          106.21358529715583,
          45.036557106591964
        ]
      }
    },
    {
      "type": "Feature",
      "properties": {
        "norad_id": 34979,
        "name": "COSMOS 2251 DEB",
        "group": "cosmos-2251-debris",
        "lat": -17.16393692428501,
        "lon": 88.91305522982677,
        "alt_km": 663.3784672760994,
        "timestamp": "2025-12-14T11:29:50.456012+00:00",
        "meta_object_name": "COSMOS 2251 DEB",
        "meta_object_id": "1993-036AFJ",
        "meta_epoch": "2025-12-13T11:52:57.517824",
        "meta_mean_motion": 14.79381451,
        "meta_eccentricity": 0.00490412,
        "meta_inclination": 74.0395,
        "meta_ra_of_asc_node": 265.7769,
        "meta_arg_of_pericenter": 343.5547,
        "meta_mean_anomaly": 16.4035,
        "meta_ephemeris_type": 0,
        "meta_classification_type": "U",
        "meta_norad_cat_id": 34979,
        "meta_element_set_no": 999,
        "meta_rev_at_epoch": 88231,
        "meta_bstar": 0.0021359315,
        "meta_mean_motion_dot": 0.00016256,
        "meta_mean_motion_ddot": 0,
        "tle_line1": "1 34979U 93036AFJ 25347.49511016  .00016256  00000+0  21359-2 0  9992",
        "tle_line2": "2 34979  74.0395 265.7769 0049041 343.5547  16.4035 14.79381451882317"
      },
      "geometry": {
        "type": "Point",
        "coordinates": [
          88.91305522982677,
          -17.16393692428501
        ]
      }
    },
    {
      "type": "Feature",
      "properties": {
        "norad_id": 34990,
        "name": "COSMOS 2251 DEB",
        "group": "cosmos-2251-debris",
        "lat": 65.21697399887955,
        "lon": -73.59916135638952,
        "alt_km": 749.6921982698414,
        "timestamp": "2025-12-14T11:29:50.456022+00:00",
        "meta_object_name": "COSMOS 2251 DEB",
        "meta_object_id": "1993-036AFN",
        "meta_epoch": "2025-12-11T11:35:34.713024",
        "meta_mean_motion": 14.42369611,
        "meta_eccentricity": 0.001637,
        "meta_inclination": 74.0455,
        "meta_ra_of_asc_node": 253.6657,
        "meta_arg_of_pericenter": 317.4187,
        "meta_mean_anomaly": 42.5699,
        "meta_ephemeris_type": 0,
        "meta_classification_type": "U",
        "meta_norad_cat_id": 34990,
        "meta_element_set_no": 999,
        "meta_rev_at_epoch": 87328,
        "meta_bstar": 0.00064071244,
        "meta_mean_motion_dot": 2.095e-05,
        "meta_mean_motion_ddot": 0,
        "tle_line1": "1 34990U 93036AFN 25345.48304066  .00002095  00000+0  64071-3 0  9992",
        "tle_line2": "2 34990  74.0455 253.6657 0016370 317.4187  42.5699 14.42369611873284"
      },
      "geometry": {
        "type": "Point",
        "coordinates": [
          -73.59916135638952,
          65.21697399887955
        ]
      }
    },
    {
      "type": "Feature",
      "properties": {
        "norad_id": 34997,
        "name": "COSMOS 2251 DEB",
        "group": "cosmos-2251-debris",
        "lat": -68.6359649979637,
        "lon": 175.5967985548275,
        "alt_km": 684.6511689899789,
        "timestamp": "2025-12-14T11:29:50.456033+00:00",
        "meta_object_name": "COSMOS 2251 DEB",
        "meta_object_id": "1993-036AFV",
        "meta_epoch": "2025-12-12T15:07:37.525152",
        "meta_mean_motion": 14.4555903,
        "meta_eccentricity": 0.00978968,
        "meta_inclination": 73.8801,
        "meta_ra_of_asc_node": 311.4025,
        "meta_arg_of_pericenter": 286.4207,
        "meta_mean_anomaly": 72.6207,
        "meta_ephemeris_type": 0,
        "meta_classification_type": "U",
        "meta_norad_cat_id": 34997,
        "meta_element_set_no": 999,
        "meta_rev_at_epoch": 70745,
        "meta_bstar": 0.0024908472,
        "meta_mean_motion_dot": 9.311e-05,
        "meta_mean_motion_ddot": 0,
        "tle_line1": "1 34997U 93036AFV 25346.63029543  .00009311  00000+0  24908-2 0  9993",
        "tle_line2": "2 34997  73.8801 311.4025 0097896 286.4207  72.6207 14.45559030707458"
      },
      "geometry": {
        "type": "Point",
        "coordinates": [
          175.5967985548275,
          -68.6359649979637
        ]
      }
    },
    {
      "type": "Feature",
      "properties": {
        "norad_id": 34998,
        "name": "COSMOS 2251 DEB",
        "group": "cosmos-2251-debris",
        "lat": 20.525566150671914,
        "lon": -29.44585838998663,
        "alt_km": 739.6134607190606,
        "timestamp": "2025-12-14T11:29:50.456043+00:00",
        "meta_object_name": "COSMOS 2251 DEB",
        "meta_object_id": "1993-036AFW",
        "meta_epoch": "2025-12-13T11:43:01.459776",
        "meta_mean_motion": 14.4928717,
        "meta_eccentricity": 0.00211483,
        "meta_inclination": 74.0098,
        "meta_ra_of_asc_node": 158.5778,
        "meta_arg_of_pericenter": 303.8852,
        "meta_mean_anomaly": 87.1839,
        "meta_ephemeris_type": 0,
        "meta_classification_type": "U",
        "meta_norad_cat_id": 34998,
        "meta_element_set_no": 999,
        "meta_rev_at_epoch": 87431,
        "meta_bstar": 0.00093389217,
        "meta_mean_motion_dot": 3.547e-05,
        "meta_mean_motion_ddot": 0,
        "tle_line1": "1 34998U 93036AFW 25347.48821134  .00003547  00000+0  93389-3 0  9999",
        "tle_line2": "2 34998  74.0098 158.5778 0021148 303.8852  87.1839 14.49287170874311"
      },
      "geometry": {
        "type": "Point",
        "coordinates": [
          -29.44585838998663,
          20.525566150671914
        ]
      }
    }
  ]
}